ONEWEB-0098             
1 45442U 20020U   25180.85652273 -.00000498  00000+0 -14410-2 0  9991
2 45442  87.8838  91.2876 0002195  76.6810 283.4563 13.11417683256460
ONEWEB-0055             
1 45443U 20020V   25180.68698088 -.00000217  00000+0 -64721-3 0  9997
2 45443  87.8837  91.3250 0001989  77.2289 282.9061 13.11414945256414
ONEWEB-0093             
1 45444U 20020W   25180.81513594  .00000672  00000+0  18613-2 0  9992
2 45444  87.8839  91.2830 0001552  86.3215 273.8090 13.11416711256498
ONEWEB-0029             
1 45445U 20020X   25180.67850850  .00000161  00000+0  41966-3 0  9997
2 45445  87.8835  91.3223 0001900  81.5729 278.5615 13.11415323256455
ONEWEB-0068             
1 45446U 20020Y   25180.81485897  .00000630  00000+0  17411-2 0  9997
2 45446  87.8840  91.2842 0001868  83.0820 277.0521 13.11417243256419
ONEWEB-0046             
1 45447U 20020Z   25180.80651346  .00000374  00000+0  10204-2 0  9999
2 45447  87.8840  91.2956 0001669  76.9013 283.2301 13.11417791256424
ONEWEB-0063             
1 45448U 20020AA  25180.68274440 -.00000034  00000+0 -13140-3 0  9990
2 45448  87.8834  91.3188 0001834  71.8823 288.2505 13.11415275256496
ONEWEB-0019             
1 45449U 20020AB  25180.80905634  .00000449  00000+0  12300-2 0  9995
2 45449  87.8844  91.3105 0002001  80.0340 280.1014 13.11417474256354
